LEMUR-2-JK0903EM1407    
1 58336U 23174CJ  26065.17870729  .00026516  00000+0  53559-3 0  9991
2 58336  97.3921 153.1862 0006279 127.6952 232.4868 15.46454352129789
LEMUR-2-MJR092620       
1 58340U 23174CN  26065.19836948  .00015082  00000+0  35498-3 0  9991
2 58340  97.3991 153.5793 0008129 125.6301 234.5704 15.42020698129768
LEMUR-2-NIMBUS2000      
1 58899U 24022A   26065.04490329  .00018028  00000+0  50531-3 0  9994
2 58899  97.4227 273.9251 0010527 125.1586 235.0646 15.36602359116413
LEMUR-2-VALHALLA        
1 58900U 24022B   26065.15375217  .00017436  00000+0  49239-3 0  9992
2 58900  97.4225 274.0700 0011110 120.7229 239.5111 15.36369321116436
LEMUR-2-OBA-NI-JESU     
1 58902U 24022D   26065.15060167  .00100128  00000+0  10287-2 0  9990
2 58902  97.4058 283.0290 0005042  81.1608 279.0222 15.64570065117044
LEMUR-2-CAEL            
1 58903U 24022E   26065.04890865  .00018572  00000+0  50580-3 0  9997
2 58903  97.4214 274.7320 0009444 105.7958 254.4329 15.37503430116474
LEMUR-2-JOHNNYTRUONG    
1 59146U 24043BA  26065.30173573  .00039978  00000+0  64462-3 0  9996
2 59146  97.5258 211.3035 0005369 195.5149 164.5940 15.52806462112030
LEMUR-2-TOMATOKECHUP    
1 60471U 24149D   26065.16911355  .00013420  00000+0  41475-3 0  9991
2 60471  97.3850 147.1123 0001126 194.8813 165.2397 15.33642440 86363
LEMUR-2-STELLA          
1 60533U 24149BT  26065.21305056  .00013876  00000+0  87241-3 0  9997
2 60533  97.6782 147.3946 0001631  94.5672 265.5743 15.09346607 84955
LEMUR-2-MARHISYAM       
1 60536U 24149BW  26065.22580357  .00013695  00000+0  87164-3 0  9993
2 60536  97.6925 147.7434 0003464 114.0507 246.1084 15.08898225 84943
LEMUR-2-AHMED-ASRAR     
1 60576U 24149DN  26065.15500344  .00012794  00000+0  78498-3 0  9996
2 60576  97.7038 149.3863 0002000  35.0187 325.1173 15.10259737 85005
LEMUR-2-LLOYD           
1 60577U 24149DP  26065.20674026  .00012153  00000+0  81318-3 0  9996
2 60577  97.6795 146.4316 0005361 131.8811 228.2875 15.07072288 84874
LEMUR-2-SQUIRRELCOMM    
1 60578U 24149DQ  26065.17225808  .00008403  00000+0  58327-3 0  9990
2 60578  97.6755 146.4932 0006115  51.9851 308.1927 15.05807807 84898
LEMUR-2-SIERRINI        
1 60579U 24149DR  26065.22724021  .00013739  00000+0  88219-3 0  9999
2 60579  97.6887 147.5361 0006297 158.9432 201.2057 15.08560054 84921
LEMUR-2-WILSON          
1 62694U 25009CP  26065.21687817  .00003558  00000+0  33343-3 0  9991
2 62694  97.7074 145.5069 0003700  43.6705 316.4807 14.94651950 61974
LEMUR-2-STAR-FOX        
1 62696U 25009CR  26065.21242394  .00011238  00000+0  88891-3 0  9992
2 62696  97.7052 147.6850 0002367 159.7602 200.3716 15.00795973 62104
