[{"OBJECT_NAME":"LEMUR-2-JK0903EM1407","OBJECT_ID":"2023-174CJ","EPOCH":"2026-03-06T04:17:20.309856","MEAN_MOTION":15.46454352,"ECCENTRICITY":0.00062799,"INCLINATION":97.3921,"RA_OF_ASC_NODE":153.1862,"ARG_OF_PERICENTER":127.6952,"MEAN_ANOMALY":232.4868,"EPHEMERIS_TYPE":0,"CLASSIFICATION_TYPE":"U","NORAD_CAT_ID":58336,"ELEMENT_SET_NO":999,"REV_AT_EPOCH":12978,"BSTAR":0.00053558926,"MEAN_MOTION_DOT":0.00026516,"MEAN_MOTION_DDOT":0},{"OBJECT_NAME":"LEMUR-2-MJR092620","OBJECT_ID":"2023-174CN","EPOCH":"2026-03-06T04:45:39.123072","MEAN_MOTION":15.42020698,"ECCENTRICITY":0.00081291,"INCLINATION":97.3991,"RA_OF_ASC_NODE":153.5793,"ARG_OF_PERICENTER":125.6301,"MEAN_ANOMALY":234.5704,"EPHEMERIS_TYPE":0,"CLASSIFICATION_TYPE":"U","NORAD_CAT_ID":58340,"ELEMENT_SET_NO":999,"REV_AT_EPOCH":12976,"BSTAR":0.00035498021,"MEAN_MOTION_DOT":0.00015082,"MEAN_MOTION_DDOT":0},{"OBJECT_NAME":"LEMUR-2-NIMBUS2000","OBJECT_ID":"2024-022A","EPOCH":"2026-03-06T01:04:39.644256","MEAN_MOTION":15.36602359,"ECCENTRICITY":0.00105276,"INCLINATION":97.4227,"RA_OF_ASC_NODE":273.9251,"ARG_OF_PERICENTER":125.1586,"MEAN_ANOMALY":235.0646,"EPHEMERIS_TYPE":0,"CLASSIFICATION_TYPE":"U","NORAD_CAT_ID":58899,"ELEMENT_SET_NO":999,"REV_AT_EPOCH":11641,"BSTAR":0.00050530736,"MEAN_MOTION_DOT":0.00018028,"MEAN_MOTION_DDOT":0},{"OBJECT_NAME":"LEMUR-2-VALHALLA","OBJECT_ID":"2024-022B","EPOCH":"2026-03-06T03:41:24.187488","MEAN_MOTION":15.36369321,"ECCENTRICITY":0.00111104,"INCLINATION":97.4225,"RA_OF_ASC_NODE":274.07,"ARG_OF_PERICENTER":120.7229,"MEAN_ANOMALY":239.5111,"EPHEMERIS_TYPE":0,"CLASSIFICATION_TYPE":"U","NORAD_CAT_ID":58900,"ELEMENT_SET_NO":999,"REV_AT_EPOCH":11643,"BSTAR":0.00049238862,"MEAN_MOTION_DOT":0.00017436,"MEAN_MOTION_DDOT":0},{"OBJECT_NAME":"LEMUR-2-OBA-NI-JESU","OBJECT_ID":"2024-022D","EPOCH":"2026-03-06T03:36:51.984288","MEAN_MOTION":15.64570065,"ECCENTRICITY":0.0005042,"INCLINATION":97.4058,"RA_OF_ASC_NODE":283.029,"ARG_OF_PERICENTER":81.1608,"MEAN_ANOMALY":279.0222,"EPHEMERIS_TYPE":0,"CLASSIFICATION_TYPE":"U","NORAD_CAT_ID":58902,"ELEMENT_SET_NO":999,"REV_AT_EPOCH":11704,"BSTAR":0.0010286676,"MEAN_MOTION_DOT":0.00100128,"MEAN_MOTION_DDOT":0},{"OBJECT_NAME":"LEMUR-2-CAEL","OBJECT_ID":"2024-022E","EPOCH":"2026-03-06T01:10:25.707360","MEAN_MOTION":15.3750343,"ECCENTRICITY":0.00094444,"INCLINATION":97.4214,"RA_OF_ASC_NODE":274.732,"ARG_OF_PERICENTER":105.7958,"MEAN_ANOMALY":254.4329,"EPHEMERIS_TYPE":0,"CLASSIFICATION_TYPE":"U","NORAD_CAT_ID":58903,"ELEMENT_SET_NO":999,"REV_AT_EPOCH":11647,"BSTAR":0.00050579863,"MEAN_MOTION_DOT":0.00018572,"MEAN_MOTION_DDOT":0},{"OBJECT_NAME":"LEMUR-2-JOHNNYTRUONG","OBJECT_ID":"2024-043BA","EPOCH":"2026-03-06T07:14:29.967072","MEAN_MOTION":15.52806462,"ECCENTRICITY":0.00053699,"INCLINATION":97.5258,"RA_OF_ASC_NODE":211.3035,"ARG_OF_PERICENTER":195.5149,"MEAN_ANOMALY":164.594,"EPHEMERIS_TYPE":0,"CLASSIFICATION_TYPE":"U","NORAD_CAT_ID":59146,"ELEMENT_SET_NO":999,"REV_AT_EPOCH":11203,"BSTAR":0.00064462276,"MEAN_MOTION_DOT":0.00039978,"MEAN_MOTION_DDOT":0},{"OBJECT_NAME":"LEMUR-2-TOMATOKECHUP","OBJECT_ID":"2024-149D","EPOCH":"2026-03-06T04:03:31.410720","MEAN_MOTION":15.3364244,"ECCENTRICITY":0.00011267,"INCLINATION":97.385,"RA_OF_ASC_NODE":147.1123,"ARG_OF_PERICENTER":194.8813,"MEAN_ANOMALY":165.2397,"EPHEMERIS_TYPE":0,"CLASSIFICATION_TYPE":"U","NORAD_CAT_ID":60471,"ELEMENT_SET_NO":999,"REV_AT_EPOCH":8636,"BSTAR":0.00041475037,"MEAN_MOTION_DOT":0.0001342,"MEAN_MOTION_DDOT":0},{"OBJECT_NAME":"LEMUR-2-STELLA","OBJECT_ID":"2024-149BT","EPOCH":"2026-03-06T05:06:47.568384","MEAN_MOTION":15.09346607,"ECCENTRICITY":0.00016317,"INCLINATION":97.6782,"RA_OF_ASC_NODE":147.3946,"ARG_OF_PERICENTER":94.5672,"MEAN_ANOMALY":265.5743,"EPHEMERIS_TYPE":0,"CLASSIFICATION_TYPE":"U","NORAD_CAT_ID":60533,"ELEMENT_SET_NO":999,"REV_AT_EPOCH":8495,"BSTAR":0.00087241002,"MEAN_MOTION_DOT":0.00013876,"MEAN_MOTION_DDOT":0},{"OBJECT_NAME":"LEMUR-2-MARHISYAM","OBJECT_ID":"2024-149BW","EPOCH":"2026-03-06T05:25:09.428448","MEAN_MOTION":15.08898225,"ECCENTRICITY":0.0003464,"INCLINATION":97.6925,"RA_OF_ASC_NODE":147.7434,"ARG_OF_PERICENTER":114.0507,"MEAN_ANOMALY":246.1084,"EPHEMERIS_TYPE":0,"CLASSIFICATION_TYPE":"U","NORAD_CAT_ID":60536,"ELEMENT_SET_NO":999,"REV_AT_EPOCH":8494,"BSTAR":0.00087164481,"MEAN_MOTION_DOT":0.00013695,"MEAN_MOTION_DDOT":0},{"OBJECT_NAME":"LEMUR-2-AHMED-ASRAR","OBJECT_ID":"2024-149DN","EPOCH":"2026-03-06T03:43:12.297216","MEAN_MOTION":15.10259737,"ECCENTRICITY":0.00020007,"INCLINATION":97.7038,"RA_OF_ASC_NODE":149.3863,"ARG_OF_PERICENTER":35.0187,"MEAN_ANOMALY":325.1173,"EPHEMERIS_TYPE":0,"CLASSIFICATION_TYPE":"U","NORAD_CAT_ID":60576,"ELEMENT_SET_NO":999,"REV_AT_EPOCH":8500,"BSTAR":0.00078498187,"MEAN_MOTION_DOT":0.00012794,"MEAN_MOTION_DDOT":0},{"OBJECT_NAME":"LEMUR-2-LLOYD","OBJECT_ID":"2024-149DP","EPOCH":"2026-03-06T04:57:42.358464","MEAN_MOTION":15.07072288,"ECCENTRICITY":0.00053613,"INCLINATION":97.6795,"RA_OF_ASC_NODE":146.4316,"ARG_OF_PERICENTER":131.8811,"MEAN_ANOMALY":228.2875,"EPHEMERIS_TYPE":0,"CLASSIFICATION_TYPE":"U","NORAD_CAT_ID":60577,"ELEMENT_SET_NO":999,"REV_AT_EPOCH":8487,"BSTAR":0.00081318079,"MEAN_MOTION_DOT":0.00012153,"MEAN_MOTION_DDOT":0},{"OBJECT_NAME":"LEMUR-2-SQUIRRELCOMM","OBJECT_ID":"2024-149DQ","EPOCH":"2026-03-06T04:08:03.098112","MEAN_MOTION":15.05807807,"ECCENTRICITY":0.00061155,"INCLINATION":97.6755,"RA_OF_ASC_NODE":146.4932,"ARG_OF_PERICENTER":51.9851,"MEAN_ANOMALY":308.1927,"EPHEMERIS_TYPE":0,"CLASSIFICATION_TYPE":"U","NORAD_CAT_ID":60578,"ELEMENT_SET_NO":999,"REV_AT_EPOCH":8489,"BSTAR":0.0005832713,"MEAN_MOTION_DOT":8.403e-5,"MEAN_MOTION_DDOT":0},{"OBJECT_NAME":"LEMUR-2-SIERRINI","OBJECT_ID":"2024-149DR","EPOCH":"2026-03-06T05:27:13.554144","MEAN_MOTION":15.08560054,"ECCENTRICITY":0.00062978,"INCLINATION":97.6887,"RA_OF_ASC_NODE":147.5361,"ARG_OF_PERICENTER":158.9432,"MEAN_ANOMALY":201.2057,"EPHEMERIS_TYPE":0,"CLASSIFICATION_TYPE":"U","NORAD_CAT_ID":60579,"ELEMENT_SET_NO":999,"REV_AT_EPOCH":8492,"BSTAR":0.0008821933,"MEAN_MOTION_DOT":0.00013739,"MEAN_MOTION_DDOT":0},{"OBJECT_NAME":"LEMUR-2-WILSON","OBJECT_ID":"2025-009CP","EPOCH":"2026-03-06T05:12:18.273888","MEAN_MOTION":14.9465195,"ECCENTRICITY":0.00037007,"INCLINATION":97.7074,"RA_OF_ASC_NODE":145.5069,"ARG_OF_PERICENTER":43.6705,"MEAN_ANOMALY":316.4807,"EPHEMERIS_TYPE":0,"CLASSIFICATION_TYPE":"U","NORAD_CAT_ID":62694,"ELEMENT_SET_NO":999,"REV_AT_EPOCH":6197,"BSTAR":0.00033342621,"MEAN_MOTION_DOT":3.558e-5,"MEAN_MOTION_DDOT":0},{"OBJECT_NAME":"LEMUR-2-STAR-FOX","OBJECT_ID":"2025-009CR","EPOCH":"2026-03-06T05:05:53.428416","MEAN_MOTION":15.00795973,"ECCENTRICITY":0.0002367,"INCLINATION":97.7052,"RA_OF_ASC_NODE":147.685,"ARG_OF_PERICENTER":159.7602,"MEAN_ANOMALY":200.3716,"EPHEMERIS_TYPE":0,"CLASSIFICATION_TYPE":"U","NORAD_CAT_ID":62696,"ELEMENT_SET_NO":999,"REV_AT_EPOCH":6210,"BSTAR":0.00088890738,"MEAN_MOTION_DOT":0.00011238,"MEAN_MOTION_DDOT":0}]
